{
  "type": "FeatureCollection",
  "features": [
    {
      "type": "Feature",
      "properties": {
        "norad_id": 67075,
        "name": "STARLINK-36230",
        "group": "last-30-days",
        "lat": 55.26679088576286,
        "lon": -117.56240712935494,
        "alt_km": 338.35490647370534,
        "timestamp": "2025-12-26T12:57:37.979081+00:00",
        "meta_object_name": "STARLINK-36230",
        "meta_object_id": "2025-298A",
        "meta_epoch": "2025-12-26T06:00:02.999808",
        "meta_mean_motion": 15.77019794,
        "meta_eccentricity": 0.00036244,
        "meta_inclination": 69.997,
        "meta_ra_of_asc_node": 211.5613,
        "meta_arg_of_pericenter": 271.747,
        "meta_mean_anomaly": 304.0481,
        "meta_ephemeris_type": 0,
        "meta_classification_type": "U",
        "meta_norad_cat_id": 67075,
        "meta_element_set_no": 999,
        "meta_rev_at_epoch": 314,
        "meta_bstar": -0.012426273,
        "meta_mean_motion_dot": -0.01781913,
        "meta_mean_motion_ddot": 0,
        "tle_line1": "1 67075U 25298A   25360.25003472 -.01781913  00000+0 -12426-1 0  9997",
        "tle_line2": "2 67075  69.9970 211.5613 0003624 271.7470 304.0481 15.77019794  3147"
      },
      "geometry": {
        "type": "Point",
        "coordinates": [
          -117.56240712935494,
          55.26679088576286
        ]
      }
    },
    {
      "type": "Feature",
      "properties": {
        "norad_id": 67076,
        "name": "STARLINK-36240",
        "group": "last-30-days",
        "lat": 56.794002097241744,
        "lon": -115.44466746318382,
        "alt_km": 338.08164989920897,
        "timestamp": "2025-12-26T12:57:37.979091+00:00",
        "meta_object_name": "STARLINK-36240",
        "meta_object_id": "2025-298B",
        "meta_epoch": "2025-12-26T06:00:02.999808",
        "meta_mean_motion": 15.7701634,
        "meta_eccentricity": 0.00033603,
        "meta_inclination": 69.9969,
        "meta_ra_of_asc_node": 211.5587,
        "meta_arg_of_pericenter": 269.6462,
        "meta_mean_anomaly": 308.0842,
        "meta_ephemeris_type": 0,
        "meta_classification_type": "U",
        "meta_norad_cat_id": 67076,
        "meta_element_set_no": 999,
        "meta_rev_at_epoch": 314,
        "meta_bstar": -0.012394719,
        "meta_mean_motion_dot": -0.01777419,
        "meta_mean_motion_ddot": 0,
        "tle_line1": "1 67076U 25298B   25360.25003472 -.01777419  00000+0 -12395-1 0  9999",
        "tle_line2": "2 67076  69.9969 211.5587 0003360 269.6462 308.0842 15.77016340  3149"
      },
      "geometry": {
        "type": "Point",
        "coordinates": [
          -115.44466746318382,
          56.794002097241744
        ]
      }
    },
    {
      "type": "Feature",
      "properties": {
        "norad_id": 67077,
        "name": "STARLINK-36243",
        "group": "last-30-days",
        "lat": 58.46986654072289,
        "lon": -112.84099290966051,
        "alt_km": 338.0501668687857,
        "timestamp": "2025-12-26T12:57:37.979103+00:00",
        "meta_object_name": "STARLINK-36243",
        "meta_object_id": "2025-298C",
        "meta_epoch": "2025-12-26T06:00:02.999808",
        "meta_mean_motion": 15.77008449,
        "meta_eccentricity": 0.00036013,
        "meta_inclination": 69.9968,
        "meta_ra_of_asc_node": 211.556,
        "meta_arg_of_pericenter": 272.1331,
        "meta_mean_anomaly": 307.7824,
        "meta_ephemeris_type": 0,
        "meta_classification_type": "U",
        "meta_norad_cat_id": 67077,
        "meta_element_set_no": 999,
        "meta_rev_at_epoch": 314,
        "meta_bstar": -0.012438284,
        "meta_mean_motion_dot": -0.01782609,
        "meta_mean_motion_ddot": 0,
        "tle_line1": "1 67077U 25298C   25360.25003472 -.01782609  00000+0 -12438-1 0  9995",
        "tle_line2": "2 67077  69.9968 211.5560 0003601 272.1331 307.7824 15.77008449  3149"
      },
      "geometry": {
        "type": "Point",
        "coordinates": [
          -112.84099290966051,
          58.46986654072289
        ]
      }
    },
    {
      "type": "Feature",
      "properties": {
        "norad_id": 67078,
        "name": "STARLINK-36236",
        "group": "last-30-days",
        "lat": 59.83008095334237,
        "lon": -110.46347868989403,
        "alt_km": 337.90528438052297,
        "timestamp": "2025-12-26T12:57:37.979115+00:00",
        "meta_object_name": "STARLINK-36236",
        "meta_object_id": "2025-298D",
        "meta_epoch": "2025-12-26T06:00:02.999808",
        "meta_mean_motion": 15.77010817,
        "meta_eccentricity": 0.00035897,
        "meta_inclination": 69.997,
        "meta_ra_of_asc_node": 211.5538,
        "meta_arg_of_pericenter": 272.0378,
        "meta_mean_anomaly": 309.6995,
        "meta_ephemeris_type": 0,
        "meta_classification_type": "U",
        "meta_norad_cat_id": 67078,
        "meta_element_set_no": 999,
        "meta_rev_at_epoch": 314,
        "meta_bstar": -0.012417087,
        "meta_mean_motion_dot": -0.0178009,
        "meta_mean_motion_ddot": 0,
        "tle_line1": "1 67078U 25298D   25360.25003472 -.01780090  00000+0 -12417-1 0  9995",
        "tle_line2": "2 67078  69.9970 211.5538 0003589 272.0378 309.6995 15.77010817  3145"
      },
      "geometry": {
        "type": "Point",
        "coordinates": [
          -110.46347868989403,
          59.83008095334237
        ]
      }
    },
    {
      "type": "Feature",
      "properties": {
        "norad_id": 67079,
        "name": "STARLINK-36159",
        "group": "last-30-days",
        "lat": 61.398290579450034,
        "lon": -107.3497940503288,
        "alt_km": 337.83426544607846,
        "timestamp": "2025-12-26T12:57:37.979125+00:00",
        "meta_object_name": "STARLINK-36159",
        "meta_object_id": "2025-298E",
        "meta_epoch": "2025-12-26T06:00:02.999808",
        "meta_mean_motion": 15.76999965,
        "meta_eccentricity": 0.00036642,
        "meta_inclination": 69.9971,
        "meta_ra_of_asc_node": 211.5513,
        "meta_arg_of_pericenter": 272.6614,
        "meta_mean_anomaly": 311.2743,
        "meta_ephemeris_type": 0,
        "meta_classification_type": "U",
        "meta_norad_cat_id": 67079,
        "meta_element_set_no": 999,
        "meta_rev_at_epoch": 314,
        "meta_bstar": -0.012434248,
        "meta_mean_motion_dot": -0.01781572,
        "meta_mean_motion_ddot": 0,
        "tle_line1": "1 67079U 25298E   25360.25003472 -.01781572  00000+0 -12434-1 0  9991",
        "tle_line2": "2 67079  69.9971 211.5513 0003664 272.6614 311.2743 15.76999965  3142"
      },
      "geometry": {
        "type": "Point",
        "coordinates": [
          -107.3497940503288,
          61.398290579450034
        ]
      }
    },
    {
      "type": "Feature",
      "properties": {
        "norad_id": 67080,
        "name": "STARLINK-36158",
        "group": "last-30-days",
        "lat": 62.826601170474184,
        "lon": -104.06688646029457,
        "alt_km": 337.6899990620368,
        "timestamp": "2025-12-26T12:57:37.979134+00:00",
        "meta_object_name": "STARLINK-36158",
        "meta_object_id": "2025-298F",
        "meta_epoch": "2025-12-26T06:00:02.999808",
        "meta_mean_motion": 15.76995462,
        "meta_eccentricity": 0.00035129,
        "meta_inclination": 69.9968,
        "meta_ra_of_asc_node": 211.5486,
        "meta_arg_of_pericenter": 269.0221,
        "meta_mean_anomaly": 317.0189,
        "meta_ephemeris_type": 0,
        "meta_classification_type": "U",
        "meta_norad_cat_id": 67080,
        "meta_element_set_no": 999,
        "meta_rev_at_epoch": 309,
        "meta_bstar": -0.01248549,
        "meta_mean_motion_dot": -0.01787549,
        "meta_mean_motion_ddot": 0,
        "tle_line1": "1 67080U 25298F   25360.25003472 -.01787549  00000+0 -12485-1 0  9999",
        "tle_line2": "2 67080  69.9968 211.5486 0003512 269.0221 317.0189 15.76995462  3095"
      },
      "geometry": {
        "type": "Point",
        "coordinates": [
          -104.06688646029457,
          62.826601170474184
        ]
      }
    },
    {
      "type": "Feature",
      "properties": {
        "norad_id": 67081,
        "name": "STARLINK-35864",
        "group": "last-30-days",
        "lat": 64.08403412068273,
        "lon": -100.71229678331608,
        "alt_km": 337.6458744774209,
        "timestamp": "2025-12-26T12:57:37.979144+00:00",
        "meta_object_name": "STARLINK-35864",
        "meta_object_id": "2025-298G",
        "meta_epoch": "2025-12-26T06:00:02.999808",
        "meta_mean_motion": 15.76990339,
        "meta_eccentricity": 0.00036328,
        "meta_inclination": 69.9972,
        "meta_ra_of_asc_node": 211.5463,
        "meta_arg_of_pericenter": 270.5133,
        "meta_mean_anomaly": 317.4843,
        "meta_ephemeris_type": 0,
        "meta_classification_type": "U",
        "meta_norad_cat_id": 67081,
        "meta_element_set_no": 999,
        "meta_rev_at_epoch": 314,
        "meta_bstar": -0.012443967,
        "meta_mean_motion_dot": -0.01782089,
        "meta_mean_motion_ddot": 0,
        "tle_line1": "1 67081U 25298G   25360.25003472 -.01782089  00000+0 -12444-1 0  9999",
        "tle_line2": "2 67081  69.9972 211.5463 0003632 270.5133 317.4843 15.76990339  3143"
      },
      "geometry": {
        "type": "Point",
        "coordinates": [
          -100.71229678331608,
          64.08403412068273
        ]
      }
    }
  ]
}